[{"OBJECT_NAME":"STARLINK-3072","OBJECT_ID":"2021-082Z","EPOCH":"2026-03-09T21:37:49.965600","MEAN_MOTION":14.98311084,"ECCENTRICITY":0.00025109,"INCLINATION":69.9991,"RA_OF_ASC_NODE":253.9202,"ARG_OF_PERICENTER":265.2533,"MEAN_ANOMALY":94.8339,"EPHEMERIS_TYPE":0,"CLASSIFICATION_TYPE":"U","NORAD_CAT_ID":49153,"ELEMENT_SET_NO":999,"REV_AT_EPOCH":24820,"BSTAR":-3.4057024e-5,"MEAN_MOTION_DOT":-4.99e-6,"MEAN_MOTION_DDOT":0},{"OBJECT_NAME":"QPS-SAR-15 (SUKUNAMI-I)","OBJECT_ID":"2025-307A","EPOCH":"2026-03-08T23:55:57.082080","MEAN_MOTION":14.98074148,"ECCENTRICITY":0.00081968,"INCLINATION":42.0068,"RA_OF_ASC_NODE":57.7223,"ARG_OF_PERICENTER":56.4325,"MEAN_ANOMALY":303.7282,"EPHEMERIS_TYPE":0,"CLASSIFICATION_TYPE":"U","NORAD_CAT_ID":67228,"ELEMENT_SET_NO":999,"REV_AT_EPOCH":1165,"BSTAR":0.00063967163,"MEAN_MOTION_DOT":7.522e-5,"MEAN_MOTION_DDOT":0}]
